[{"OBJECT_NAME":"STARLINK-30862","OBJECT_ID":"2024-038K","EPOCH":"2026-03-09T05:30:16.655616","MEAN_MOTION":15.27577329,"ECCENTRICITY":9.632e-5,"INCLINATION":43.0042,"RA_OF_ASC_NODE":18.7746,"ARG_OF_PERICENTER":265.5721,"MEAN_ANOMALY":94.502,"EPHEMERIS_TYPE":0,"CLASSIFICATION_TYPE":"U","NORAD_CAT_ID":59032,"ELEMENT_SET_NO":999,"REV_AT_EPOCH":11470,"BSTAR":-6.781925e-6,"MEAN_MOTION_DOT":-4.49e-6,"MEAN_MOTION_DDOT":0},{"OBJECT_NAME":"SIMSAT 2","OBJECT_ID":"2000-026B","EPOCH":"2026-03-09T20:25:01.673184","MEAN_MOTION":15.29036787,"ECCENTRICITY":0.00037035,"INCLINATION":86.3514,"RA_OF_ASC_NODE":176.4271,"ARG_OF_PERICENTER":287.9875,"MEAN_ANOMALY":72.0969,"EPHEMERIS_TYPE":0,"CLASSIFICATION_TYPE":"U","NORAD_CAT_ID":26366,"ELEMENT_SET_NO":999,"REV_AT_EPOCH":42803,"BSTAR":0.00013465771,"MEAN_MOTION_DOT":3.833e-5,"MEAN_MOTION_DDOT":0}]
